EYESAT-1 (AO-27)        
1 22825U 93061C   17203.87722703 -.00000016  00000-0  11607-4 0  9994
2 22825  98.8149 169.9033 0007571 221.9494 138.1109 14.30001039242509
CUTE-1 (CO-55)          
1 27844U 03031E   17203.95929866  .00000043  00000-0  39219-4 0  9994
2 27844  98.6892 212.4450 0008610 240.9095 119.1221 14.22048314729364
CUBESAT XI-IV (CO-57)   
1 27848U 03031J   17203.47611115  .00000038  00000-0  37464-4 0  9994
2 27848  98.6985 212.2427 0008459 253.1528 106.8722 14.21661811729216
CUBESAT XI 5            
1 28895U 05043F   17203.93348793  .00000107  00000-0  29283-4 0  9999
2 28895  97.8685   4.5841 0017595  34.8912 325.3440 14.63412894625481
CUTE-1.7+APD II (CO-65) 
1 32785U 08021C   17203.81821488  .00000225  00000-0  30196-4 0  9991
2 32785  97.5650 226.4614 0014422  54.7383 305.5182 14.87910327500121
COMPASS-1               
1 32787U 08021E   17203.88069527  .00000358  00000-0  39956-4 0  9998
2 32787  97.5578 235.6126 0013191  26.3972 333.7917 14.92637254500774
AAUSAT-II               
1 32788U 08021F   17203.73367260  .00000330  00000-0  36154-4 0  9995
2 32788  97.5566 238.3755 0012395  19.6016 340.5679 14.93913094500882
DELFI-C3 (DO-64)        
1 32789U 08021G   17203.73013683  .00000844  00000-0  63721-4 0  9993
2 32789  97.5564 261.2100 0012247 348.1837  11.9100 15.04971331502114
CANX-2                  
1 32790U 08021H   17203.73724769  .00000195  00000-0  27094-4 0  9991
2 32790  97.5629 224.7355 0015137  56.3116 303.9542 14.87635237500049
SEEDS II (CO-66)        
1 32791U 08021J   17203.56224774  .00000417  00000-0  48349-4 0  9997
2 32791  97.5616 230.6910 0014443  41.1166 319.1138 14.90252708500339
SWISSCUBE               
1 35932U 09051B   17203.32096492  .00000100  00000-0  33657-4 0  9994
2 35932  98.5003 342.4622 0008589 137.1417 223.0451 14.56027602415398
BEESAT                  
1 35933U 09051C   17203.85414352  .00000091  00000-0  31600-4 0  9997
2 35933  98.5042 344.3392 0006612 145.7031 214.4594 14.56145904415533
ITUPSAT 1               
1 35935U 09051E   17203.86200047  .00000080  00000-0  29579-4 0  9994
2 35935  98.5155 344.6013 0008987 142.4118 217.7708 14.55338347415391
TISAT 1                 
1 36799U 10035E   17203.32364492  .00000290  00000-0  35839-4 0  9992
2 36799  98.0657 326.7696 0011849 205.5736 154.4897 14.90425485381014
M-CUBED & EXP-1 PRIME   
1 37855U 11061F   17203.74095604  .00001252  00000-0  73399-4 0  9990
2 37855 101.7114  93.2323 0180308 336.6223  22.6863 15.03167657312130
HORYU 2                 
1 38340U 12025D   17203.96469394  .00000184  00000-0  35323-4 0  9994
2 38340  98.3766 209.1471 0011765 171.6834 188.4571 14.75358536268156
STRAND-1                
1 39090U 13009E   17203.51356139  .00000032  00000-0  26515-4 0  9998
2 39090  98.5515  48.6148 0008901 188.2894 171.8146 14.34974405230526
BRITE-AUSTRIA           
1 39091U 13009F   17203.59601596  .00000013  00000-0  19975-4 0  9998
2 39091  98.5478  48.0721 0010074 196.8981 163.1870 14.35034079230569
UNIBRITE                
1 39092U 13009G   17203.87739628  .00000022  00000-0  23115-4 0  9999
2 39092  98.5487  48.0378 0009104 188.4740 171.6293 14.34908652230581
AIST-2                  
1 39133U 13015D   17203.93538456  .00000098  00000-0  19680-4 0  9990
2 39133  64.8726 172.5805 0038133 276.2197  83.4579 15.04307316233288
SOMP                    
1 39134U 13015E   17203.86223639  .00001021  00000-0  59255-4 0  9996
2 39134  64.8647 111.3031 0037457 259.3382 100.3525 15.17891339234513
BEESAT-2                
1 39136U 13015G   17203.88529613  .00000907  00000-0  57954-4 0  9997
2 39136  64.8701 122.4161 0033252 278.6247  81.1111 15.15163019234293
NEE-01 PEGASUS          
1 39151U 13018B   17203.19753574  .00000139  00000-0  25601-4 0  9997
2 39151  97.9841 294.4970 0015832 299.1735  60.7892 14.79732416228715
CUBEBUG-1 (CAPITAN BETO)
1 39153U 13018D   17203.71737909  .00000153  00000-0  27107-4 0  9990
2 39153  97.9864 295.8259 0015697 295.4380  64.5207 14.80196026228840
ESTCUBE 1               
1 39161U 13021C   17203.75242361  .00000185  00000-0  37521-4 0  9996
2 39161  98.0282 289.2924 0010350  37.7401 322.4531 14.71911863225985
POPACS 1                
1 39268U 13055D   17203.32259555  .00006146  00000-0  17437-3 0  9993
2 39268  81.0051 331.5195 0651082 116.5870 250.3537 14.31247059195749
POPACS 2                
1 39269U 13055E   17203.29711922  .00004522  00000-0  13229-3 0  9992
2 39269  81.0172 346.9957 0700837 156.9777 206.4519 14.20088112195065
POPACS 3                
1 39270U 13055F   17203.87281969  .00002005  00000-0  62871-4 0  9993
2 39270  81.0179 354.8627 0725153 180.9946 178.9845 14.13268520195812
FIREFLY                 
1 39404U 13064AA  17203.83435828  .00046303  00000-0  25118-3 0  9994
2 39404  40.4976  77.4899 0009582 310.3865  49.6128 15.79084127203296
ZACUBE-1 (TSHEPISOSAT)  
1 39417U 13066B   17203.57027459  .00000230  00000-0  35589-4 0  9991
2 39417  97.6269 244.0934 0060099 152.9548 207.4818 14.80727889198012
WNISAT-1                
1 39423U 13066H   17203.80837448  .00000145  00000-0  38768-4 0  9998
2 39423  97.6849 189.2339 0175086 327.2648  31.7787 14.52854597194401
TRITON-1                
1 39427U 13066M   17203.57856961  .00000170  00000-0  35451-4 0  9991
2 39427  97.6373 216.5640 0113025 234.9683 124.0878 14.67476082196048
GOMX 1                  
1 39430U 13066Q   17203.90558149  .00000160  00000-0  38498-4 0  9992
2 39430  97.6660 200.2211 0150446 290.4983  68.0125 14.58886692195136
BRITE-PL                
1 39431U 13066R   17203.87250752  .00000071  00000-0  25320-4 0  9999
2 39431  97.7089 178.4674 0202887   5.6843 354.6586 14.46852979193412
HUMSAT-D                
1 39433U 13066T   17203.81254320  .00000373  00000-0  42431-4 0  9997
2 39433  97.6501 265.8772 0032789  98.5643 261.9293 14.91468549198149
EAGLE 2                 
1 39436U 13066W   17203.26817272  .00019297  00000-0  51091-3 0  9996
2 39436  97.7111 310.9595 0009120 318.6244  41.4308 15.38378973200898
CUBEBUG-2 (LO-74)       
1 39440U 13066AA  17203.91655419  .00000191  00000-0  33834-4 0  9995
2 39440  97.6267 233.3198 0080719 183.3821 176.6854 14.75468304196161
NEE-02 KRYSAOR          
1 39441U 13066AB  17203.87627867  .00000131  00000-0  25805-4 0  9990
2 39441  97.6250 231.9392 0081956 187.2225 172.7811 14.74631183196086
FUNCUBE-1 (AO-73)       
1 39444U 13066AE  17203.93766555  .00000278  00000-0  40906-4 0  9999
2 39444  97.6285 245.5424 0059403 148.4048 212.0754 14.81465441196318
UWE-3                   
1 39446U 13066AG  17203.55539525  .00000202  00000-0  33723-4 0  9990
2 39446  97.6257 238.2345 0070797 169.0357 191.2417 14.78001466195830
BRITE-TORONTO           
1 40020U 14033L   17203.85968876  .00000110  00000-0  27453-4 0  9994
2 40020  97.8312  73.0299 0086769 212.7639 146.8168 14.66400799165310
DUCHIFAT-1              
1 40021U 14033M   17203.49022040  .00000379  00000-0  45310-4 0  9998
2 40021  97.9167 116.7054 0012873 178.4150 181.7111 14.89919333167856
FLOCK 1C-10             
1 40023U 14033P   17203.75221090  .00000877  00000-0  99717-4 0  9998
2 40023  97.9178 115.9939 0012266 184.8464 175.2622 14.88754158167797
NANOSATC-BR1            
1 40024U 14033Q   17203.70988476  .00000358  00000-0  43831-4 0  9992
2 40024  97.9124 115.7570 0012179 178.7485 181.3764 14.89240906167838
QB50P1                  
1 40025U 14033R   17203.91009662  .00000258  00000-0  33866-4 0  9993
2 40025  97.9104 114.9459 0012343 181.3320 178.7865 14.88440592167299
FLOCK 1C-7              
1 40026U 14033S   17203.81865619  .00000923  00000-0  10279-3 0  9996
2 40026  97.9205 116.8294 0010741 180.0412 180.0735 14.89490415167852
FLOCK 1C-1              
1 40027U 14033T   17203.71871669  .00000634  00000-0  73692-4 0  9996
2 40027  97.9207 116.1980 0012107 183.2792 176.8420 14.88813166167804
POPSAT-HIP-1            
1 40028U 14033U   17203.81029648  .00000560  00000-0  66518-4 0  9997
2 40028  97.9145 115.1300 0013710 180.3762 179.7446 14.88312340167771
FLOCK 1C-2              
1 40029U 14033V   17203.74714071  .00000938  00000-0  10602-3 0  9992
2 40029  97.9184 116.0809 0013739 178.3987 181.7248 14.88833159167797
FLOCK 1C-4              
1 40031U 14033X   17203.69987861  .00000588  00000-0  68933-4 0  9990
2 40031  97.9187 116.0118 0014005 177.1596 182.9674 14.88678734167776
QB50P2                  
1 40032U 14033Y   17203.90090054  .00000247  00000-0  32964-4 0  9991
2 40032  97.9076 114.0194 0011885 175.9189 184.2126 14.87998010167232
FLOCK 1C-11             
1 40033U 14033Z   17203.72242973  .00000365  00000-0  43596-4 0  9995
2 40033  97.9197 117.5163 0011935 169.7710 190.3791 14.90185758167886
ANTELSAT                
1 40034U 14033AA  17203.92986958  .00000188  00000-0  35637-4 0  9996
2 40034  97.8547  86.7469 0058979 176.5510 183.6117 14.73714424165653
FLOCK 1C-9              
1 40035U 14033AB  17203.73460473  .00001037  00000-0  11643-3 0  9999
2 40035  97.9220 116.4462 0011710 170.6750 189.4698 14.88888676167792
FLOCK 1C-6              
1 40036U 14033AC  17203.82026570  .00000921  00000-0  10383-3 0  9997
2 40036  97.9231 116.7475 0011818 170.9589 189.1789 14.88994555167820
PERSEUS-M2              
1 40037U 14033AD  17203.80926332  .00000090  00000-0  16474-4 0  9996
2 40037  97.9095 112.3936 0014266 183.2907 176.8217 14.86235899167606
FLOCK 1C-5              
1 40038U 14033AE  17203.82778758  .00000635  00000-0  73454-4 0  9992
2 40038  97.9215 116.5594 0013965 171.4072 188.7355 14.88979213167819
PERSEUS-M1              
1 40039U 14033AF  17203.81803132  .00000065  00000-0  13793-4 0  9994
2 40039  97.9102 111.9479 0014209 179.2210 180.9030 14.85860044167056
FLOCK 1C-8              
1 40040U 14033AG  17203.70505771  .00000519  00000-0  58399-4 0  9997
2 40040  97.9251 118.6468 0012812 158.7399 201.4355 14.90922669167926
